01566   16.95  0.15 J998A 339.19811   31.26918   88.10405   22.85964  0.8267422  0.88071487   1.0779017    MPC  8665   513  14 1949-1982 0.9  M-N 08  Landgraf   8003  (1566) Icarus
11433   14.86  0.15 J998A 105.91891  140.59817   59.73019    3.21566  0.1614500  0.26205574   2.4184675  2 MPC 35599    35   7 1953-1999 0.87 M-v 38h Williams   0000 (11433) 3474 T-3
